OBJECT_NAME,OBJECT_ID,EPOCH,MEAN_MOTION,ECCENTRICITY,INCLINATION,RA_OF_ASC_NODE,ARG_OF_PERICENTER,MEAN_ANOMALY,EPHEMERIS_TYPE,CLASSIFICATION_TYPE,NORAD_CAT_ID,ELEMENT_SET_NO,REV_AT_EPOCH,BSTAR,MEAN_MOTION_DOT,MEAN_MOTION_DDOT
ION SCV-004,2022-002K,2026-05-19T12:41:35.022912,15.30134397,.0009211,97.2850,197.7297,96.4507,263.7783,0,U,50993,999,24091,.12537265E-3,.3585E-4,0
ETV-A1,2022-002CE,2026-05-19T22:48:03.864672,15.40031677,.0006859,97.2886,206.3481,91.3281,268.8751,0,U,51060,999,24149,.22058334E-3,.8734E-4,0
BRO-5,2022-002CF,2026-05-19T23:24:51.420960,15.45684644,.00063229,97.3005,213.4292,80.6263,279.5701,0,U,51061,999,24189,.47981824E-3,.23119E-3,0
LUDI TANCE 1-01A (L-SAR 01A),2022-007A,2026-05-20T00:18:48.134304,14.88419247,.00016255,97.8081,147.8331,90.9703,269.1700,0,U,51284,999,23428,.43676346E-4,.351E-5,0
LUDI TANCE 1-01B (L-SAR 01B),2022-018A,2026-05-19T23:30:22.283712,14.88420041,.0001611,97.8088,147.7964,92.2267,267.9134,0,U,51822,999,22951,.4633326E-4,.375E-5,0
JILIN-1 GAOFEN 03D15,2022-019R,2026-05-19T20:34:10.627680,15.95617650,.000662,97.3627,235.9878,225.5215,134.5520,0,U,51839,999,23560,.98410306E-3,.391692E-2,.6341624E-4
JILIN-1 GAOFEN 03D12,2022-019T,2026-05-19T22:51:53.895168,15.97136343,.00072198,97.3637,236.0470,223.9568,136.1135,0,U,51841,999,23562,.90153357E-3,.389777E-2,.64061029E-4
2022-023F,2022-023F,2026-05-19T18:02:00.820032,15.18038396,.01284379,63.4475,10.1522,343.7596,15.9416,0,U,51951,999,23339,.54666311E-3,.1367E-3,0
MERIDIAN 10,2022-030A,2026-05-19T13:23:41.415072,2.00616075,.67762234,62.6768,143.8677,272.8792,17.6960,0,U,52145,999,3045,0,.212E-5,0
OMNI-L1,2022-033A,2026-05-19T05:27:14.833728,14.82625816,.0005754,97.8396,218.9693,34.3221,325.8364,0,U,52157,999,22316,.12353E-3,.943E-5,0
ENMAP,2022-033C,2026-05-19T22:40:07.964832,14.74961090,.00014874,97.9791,222.5946,85.7609,274.3770,0,U,52159,999,22249,.65735713E-4,.392E-5,0
ARCSAT-1,2022-033E,2026-05-19T17:08:53.273472,15.52847779,.00033818,97.2744,231.5821,310.7449,49.3510,0,U,52161,999,23128,.14747273E-3,.9048E-4,0
GLOBAL-18,2022-034B,2026-05-19T22:24:02.914848,15.44994284,.0005147,52.9826,31.5394,148.3034,211.8282,0,U,52196,999,23259,.35083203E-3,.16418E-3,0
GAOFEN-3 03,2022-035A,2026-05-19T23:49:42.286656,14.42219714,.00009924,98.4065,148.9819,83.8802,276.2501,0,U,52200,999,21678,.37231125E-4,.79E-6,0
DAQI-1,2022-039A,2026-05-19T22:23:25.261728,14.57657809,.00037436,98.1482,79.3718,5.8405,354.2837,0,U,52257,999,21782,.25276079E-4,.7E-6,0
BRO-6,2022-047AE,2026-05-19T22:01:58.579104,15.48734120,.00055362,97.3398,230.4719,163.0989,197.0447,0,U,52422,999,22677,.53278858E-3,.28548E-3,0
JILIN-1 GAOFEN 3D27,2022-048B,2026-05-19T22:59:36.332160,15.69197880,.00052476,97.5686,251.4857,150.3445,209.8114,0,U,52444,999,22504,.67199174E-3,.78542E-3,0
JILIN-1 GAOFEN 3D28,2022-048C,2026-05-19T22:33:13.363200,15.71377696,.00042264,97.5628,251.5233,169.5972,190.5378,0,U,52445,999,22508,.69977569E-3,.89617E-3,0
VIGORIDE-3,2022-057AE,2026-05-19T21:50:19.660128,15.26948115,.00076754,97.6573,279.1487,215.4339,144.6391,0,U,52760,999,22084,.15023144E-3,.3899E-4,0
ION SCV-006,2022-057AF,2026-05-19T22:12:01.185408,15.44541946,.00170393,97.6076,287.2137,212.2301,147.7907,0,U,52761,999,22175,.16340625E-3,.7528E-4,0
SHERPA-AC1,2022-057AH,2026-05-19T22:11:25.240416,15.35822575,.0007699,97.6657,287.9886,182.6959,177.4244,0,U,52763,999,22136,.15621262E-3,.5362E-4,0
OMNI-L2,2022-057AR,2026-05-19T21:17:37.677696,14.81284772,.00081219,97.4728,204.1468,65.3109,294.8950,0,U,52771,999,21620,.1177701E-3,.871E-5,0
STEP CUBE LAB-II,2022-065D,2026-05-19T23:07:02.853408,14.63252478,.00098563,98.2193,283.9582,110.4592,249.7668,0,U,52897,999,20737,.12660133E-3,.605E-5,0
RANDEV,2022-065E,2026-05-19T23:19:18.844896,14.63637571,.00091805,98.2177,284.3058,110.7555,249.4631,0,U,52898,999,20712,.11709799E-3,.561E-5,0
SNUGLITE-II,2022-065F,2026-05-19T22:43:11.923392,14.64287465,.00087556,98.2166,284.8343,110.3068,249.9076,0,U,52899,999,20686,.11924842E-3,.581E-5,0
MIMAN,2022-065G,2026-05-19T21:59:09.775104,14.61808136,.00088754,98.2224,282.5475,111.8106,248.4040,0,U,52900,999,20631,.76443514E-4,.334E-5,0
STARLINK-4362,2022-077A,2026-05-19T22:54:17.498016,15.05645608,.00012468,97.4712,320.0196,98.3054,261.8314,0,U,53043,999,21163,.51442217E-4,.683E-5,0
