ION SCV-004             
1 50993U 22002K   26139.52887758  .00003585  00000+0  12537-3 0  9994
2 50993  97.2850 197.7297 0009211  96.4507 263.7783 15.30134397240913
ETV-A1                  
1 51060U 22002CE  26139.95004473  .00008734  00000+0  22058-3 0  9992
2 51060  97.2886 206.3481 0006859  91.3281 268.8751 15.40031677241491
BRO-5                   
1 51061U 22002CF  26139.97559515  .00023119  00000+0  47982-3 0  9994
2 51061  97.3005 213.4292 0006322  80.6263 279.5701 15.45684644241892
LUDI TANCE 1-01A (L-SA*)
1 51284U 22007A   26140.01305711  .00000351  00000+0  43676-4 0  9990
2 51284  97.8081 147.8331 0001625  90.9703 269.1700 14.88419247234286
LUDI TANCE 1-01B (L-SA*)
1 51822U 22018A   26139.97942458  .00000375  00000+0  46333-4 0  9997
2 51822  97.8088 147.7964 0001611  92.2267 267.9134 14.88420041229518
JILIN-1 GAOFEN 03D15    
1 51839U 22019R   26139.85706745  .00391692  63416-4  98410-3 0  9992
2 51839  97.3627 235.9878 0006620 225.5215 134.5520 15.95617650235601
JILIN-1 GAOFEN 03D12    
1 51841U 22019T   26139.95270712  .00389777  64061-4  90153-3 0  9990
2 51841  97.3637 236.0470 0007219 223.9568 136.1135 15.97136343235622
2022-023F               
1 51951U 22023F   26139.75139838  .00013670  00000+0  54666-3 0  9991
2 51951  63.4475  10.1522 0128437 343.7596  15.9416 15.18038396233395
MERIDIAN 10             
1 52145U 22030A   26139.55811823  .00000212  00000+0  00000+0 0  9991
2 52145  62.6768 143.8677 6776223 272.8792  17.6960  2.00616075 30458
OMNI-L1                 
1 52157U 22033A   26139.22725502  .00000943  00000+0  12353-3 0  9998
2 52157  97.8396 218.9693 0005754  34.3221 325.8364 14.82625816223166
ENMAP                   
1 52159U 22033C   26139.94453663  .00000392  00000+0  65736-4 0  9997
2 52159  97.9791 222.5946 0001487  85.7609 274.3770 14.74961090222491
ARCSAT-1                
1 52161U 22033E   26139.71450548  .00009048  00000+0  14747-3 0  9996
2 52161  97.2744 231.5821 0003381 310.7449  49.3510 15.52847779231288
GLOBAL-18               
1 52196U 22034B   26139.93336707  .00016418  00000+0  35083-3 0  9994
2 52196  52.9826  31.5394 0005147 148.3034 211.8282 15.44994284232597
GAOFEN-3 03             
1 52200U 22035A   26139.99285054  .00000079  00000+0  37231-4 0  9999
2 52200  98.4065 148.9819 0000992  83.8802 276.2501 14.42219714216784
DAQI-1                  
1 52257U 22039A   26139.93293127  .00000070  00000+0  25276-4 0  9996
2 52257  98.1482  79.3718 0003743   5.8405 354.2837 14.57657809217823
BRO-6                   
1 52422U 22047AE  26139.91803911  .00028548  00000+0  53279-3 0  9998
2 52422  97.3398 230.4719 0005536 163.0989 197.0447 15.48734120226778
JILIN-1 GAOFEN 3D27     
1 52444U 22048B   26139.95805940  .00078542  00000+0  67199-3 0  9996
2 52444  97.5686 251.4857 0005247 150.3445 209.8114 15.69197880225046
JILIN-1 GAOFEN 3D28     
1 52445U 22048C   26139.93973800  .00089617  00000+0  69978-3 0  9998
2 52445  97.5628 251.5233 0004226 169.5972 190.5378 15.71377696225085
VIGORIDE-3              
1 52760U 22057AE  26139.90994977  .00003899  00000+0  15023-3 0  9993
2 52760  97.6573 279.1487 0007675 215.4339 144.6391 15.26948115220845
ION SCV-006             
1 52761U 22057AF  26139.92501372  .00007528  00000+0  16341-3 0  9996
2 52761  97.6076 287.2137 0017039 212.2301 147.7907 15.44541946221754
SHERPA-AC1              
1 52763U 22057AH  26139.92459769  .00005362  00000+0  15621-3 0  9994
2 52763  97.6657 287.9886 0007699 182.6959 177.4244 15.35822575221360
OMNI-L2                 
1 52771U 22057AR  26139.88724164  .00000871  00000+0  11777-3 0  9990
2 52771  97.4728 204.1468 0008121  65.3109 294.8950 14.81284772216204
STEP CUBE LAB-II        
1 52897U 22065D   26139.96322747  .00000605  00000+0  12660-3 0  9995
2 52897  98.2193 283.9582 0009856 110.4592 249.7668 14.63252478207375
RANDEV                  
1 52898U 22065E   26139.97174589  .00000561  00000+0  11710-3 0  9992
2 52898  98.2177 284.3058 0009180 110.7555 249.4631 14.63637571207124
SNUGLITE-II             
1 52899U 22065F   26139.94666578  .00000581  00000+0  11925-3 0  9994
2 52899  98.2166 284.8343 0008755 110.3068 249.9076 14.64287465206869
MIMAN                   
1 52900U 22065G   26139.91608536  .00000334  00000+0  76444-4 0  9998
2 52900  98.2224 282.5475 0008875 111.8106 248.4040 14.61808136206316
STARLINK-4362           
1 53043U 22077A   26139.95436919  .00000683  00000+0  51442-4 0  9996
2 53043  97.4712 320.0196 0001246  98.3054 261.8314 15.05645608211638
